OBJECT_NAME,OBJECT_ID,EPOCH,MEAN_MOTION,ECCENTRICITY,INCLINATION,RA_OF_ASC_NODE,ARG_OF_PERICENTER,MEAN_ANOMALY,EPHEMERIS_TYPE,CLASSIFICATION_TYPE,NORAD_CAT_ID,ELEMENT_SET_NO,REV_AT_EPOCH,BSTAR,MEAN_MOTION_DOT,MEAN_MOTION_DDOT
STARLINK-35362,2025-224G,2026-06-13T15:33:05.263776,15.30238523,.0001288,53.1610,285.8026,91.4845,268.6303,0,U,65888,999,3951,.10405E-2,.30621E-3,0
STARLINK-35193,2025-224H,2026-06-13T15:46:45.293088,15.30175565,.0000942,53.1606,285.8515,92.4807,267.6301,0,U,65889,999,3954,.50835E-3,.14715E-3,0
STARLINK-34542,2025-224J,2026-06-13T15:42:11.874240,15.30198269,.0001004,53.1621,285.8445,85.8842,274.2274,0,U,65890,999,3956,.82509E-3,.24156E-3,0
STARLINK-34791,2025-224K,2026-06-13T14:21:49.084992,15.30209468,.0001487,53.1624,286.2002,80.4000,279.7169,0,U,65891,999,3955,.85435E-3,.25037E-3,0
STARLINK-34853,2025-224L,2026-06-13T14:56:35.471328,15.34399547,.0001499,53.1599,284.2321,108.0580,252.0586,0,U,65892,999,3951,.5954E-3,.19793E-3,0
STARLINK-34921,2025-224M,2026-06-13T15:37:38.226432,15.30193336,.0001342,53.1610,285.8139,84.7469,275.3684,0,U,65893,999,3956,.75961E-3,.22201E-3,0
STARLINK-34672,2025-224N,2026-06-13T15:27:01.435968,15.30173289,.0001182,53.1589,285.7650,134.3500,225.7597,0,U,65894,999,3956,.14217E-2,.41949E-3,0
STARLINK-34898,2025-224P,2026-06-13T15:02:39.230016,15.34390169,.0001377,53.1596,284.2412,81.3460,278.7698,0,U,65895,999,3958,.50923E-3,.16862E-3,0
STARLINK-34906,2025-224Q,2026-06-13T15:45:01.504224,15.31723227,.0000849,53.1595,285.1380,74.3549,285.7546,0,U,65896,999,3957,.71942E-3,.22042E-3,0
STARLINK-34934,2025-224R,2026-06-13T14:44:28.474080,15.34384673,.0001396,53.1594,284.1617,86.6789,273.4373,0,U,65897,999,3953,.86028E-3,.28787E-3,0
STARLINK-34936,2025-224S,2026-06-13T14:53:33.830880,15.34392516,.0001581,53.1604,284.2053,92.1642,267.9542,0,U,65898,999,3958,.63322E-3,.21073E-3,0
STARLINK-35272,2025-224T,2026-06-13T14:29:19.843296,15.34399277,.0001224,53.1600,284.0972,57.2535,302.8586,0,U,65899,999,3957,.71902E-3,.23994E-3,0
STARLINK-35264,2025-224U,2026-06-13T14:23:15.699264,15.34422985,.0001132,53.1607,284.0692,85.3718,274.7414,0,U,65900,999,3957,.85613E-3,.28681E-3,0
STARLINK-35249,2025-224V,2026-06-13T13:55:58.619712,15.30206678,.0001939,53.1599,286.0776,162.9616,197.1450,0,U,65901,999,3953,.93604E-3,.27472E-3,0
STARLINK-35278,2025-224W,2026-06-13T15:45:13.912992,15.30198409,.0001269,53.1613,285.8442,75.0897,285.0245,0,U,65902,999,3956,.13009E-2,.38367E-3,0
STARLINK-35210,2025-224X,2026-06-13T14:24:51.293952,15.30197625,.000121,53.1617,286.2055,84.7340,275.3799,0,U,65903,999,3953,.93904E-3,.27554E-3,0
STARLINK-35348,2025-224Y,2026-06-13T14:35:23.887968,15.34366290,.0001225,53.1597,284.1237,91.9731,268.1412,0,U,65904,999,3953,.58258E-3,.19337E-3,0
STARLINK-35380,2025-224Z,2026-06-13T15:16:21.613728,15.30201781,.0001372,53.1594,285.7111,68.5498,291.5649,0,U,65905,999,3951,.77939E-3,.22796E-3,0
STARLINK-35385,2025-224AA,2026-06-13T14:50:32.162784,15.34386652,.000111,53.1590,284.1890,89.2492,270.8638,0,U,65906,999,3956,.93613E-3,.31371E-3,0
STARLINK-35347,2025-224AB,2026-06-13T14:41:26.634912,15.34399529,.0001177,53.1597,284.1476,86.4716,273.6421,0,U,65907,999,3956,.95591E-3,.32058E-3,0
STARLINK-35329,2025-224AC,2026-06-13T14:59:37.576608,15.34396988,.0001317,53.1590,284.2283,93.7904,266.3249,0,U,65908,999,3957,.10991E-2,.36938E-3,0
STARLINK-35387,2025-224AD,2026-06-13T15:52:49.826784,15.30193688,.0001171,53.1608,285.8740,86.7556,273.3578,0,U,65909,999,3951,.95202E-3,.27938E-3,0
STARLINK-35523,2025-225A,2026-06-13T11:00:36.968544,15.34406539,.00010562,53.1597,80.6450,92.4471,267.6652,0,U,65910,999,3907,.78454631E-3,.26229E-3,0
STARLINK-35160,2025-225B,2026-06-13T01:22:41.298816,15.34413445,.00011226,53.1592,82.4079,88.6632,271.4499,0,U,65911,999,3901,.67555199E-3,.22527E-3,0
STARLINK-35508,2025-225C,2026-06-13T01:10:34.273056,15.34413928,.00011806,53.1602,82.3565,83.6343,276.4794,0,U,65912,999,3901,.63589441E-3,.21179E-3,0
STARLINK-35472,2025-225D,2026-06-13T20:00:01.999008,15.34380165,.000135,53.1603,79.0289,110.0797,90.6038,0,U,65913,999,586,.2724E-3,.8832E-4,0
STARLINK-35524,2025-225E,2026-06-13T01:18:01.808640,15.30218242,.0001102,53.1584,82.3765,87.6145,272.4982,0,U,65914,999,3901,.70620816E-3,.20627E-3,0
STARLINK-35539,2025-225F,2026-06-13T11:29:27.824928,15.30214356,.00012884,53.1593,80.7833,74.3247,285.7896,0,U,65915,999,3907,.65740298E-3,.1917E-3,0
STARLINK-35521,2025-225G,2026-06-13T11:35:32.737920,15.30213031,.00013677,53.1593,80.7906,100.4866,259.6289,0,U,65916,999,3907,.42905369E-3,.12374E-3,0
STARLINK-35478,2025-225H,2026-06-13T20:00:01.999008,15.33545559,.0001357,53.1600,79.0912,96.4307,71.1910,0,U,65917,999,581,.77748E-3,.2528E-3,0
