STARLINK-35362          
1 65888U 25224G   26164.64797759  .00030621  00000+0  10405-2 0  9996
2 65888  53.1610 285.8026 0001288  91.4845 268.6303 15.30238523 39512
STARLINK-35193          
1 65889U 25224H   26164.65746867  .00014715  00000+0  50835-3 0  9990
2 65889  53.1606 285.8515 0000942  92.4807 267.6301 15.30175565 39542
STARLINK-34542          
1 65890U 25224J   26164.65430410  .00024156  00000+0  82509-3 0  9999
2 65890  53.1621 285.8445 0001004  85.8842 274.2274 15.30198269 39569
STARLINK-34791          
1 65891U 25224K   26164.59848478  .00025037  00000+0  85435-3 0  9990
2 65891  53.1624 286.2002 0001487  80.4000 279.7169 15.30209468 39555
STARLINK-34853          
1 65892U 25224L   26164.62263277  .00019793  00000+0  59540-3 0  9993
2 65892  53.1599 284.2321 0001499 108.0580 252.0586 15.34399547 39517
STARLINK-34921          
1 65893U 25224M   26164.65113688  .00022201  00000+0  75961-3 0  9990
2 65893  53.1610 285.8139 0001342  84.7469 275.3684 15.30193336 39565
STARLINK-34672          
1 65894U 25224N   26164.64376662  .00041949  00000+0  14217-2 0  9999
2 65894  53.1589 285.7650 0001182 134.3500 225.7597 15.30173289 39565
STARLINK-34898          
1 65895U 25224P   26164.62684294  .00016862  00000+0  50923-3 0  9992
2 65895  53.1596 284.2412 0001377  81.3460 278.7698 15.34390169 39580
STARLINK-34906          
1 65896U 25224Q   26164.65626741  .00022042  00000+0  71942-3 0  9990
2 65896  53.1595 285.1380 0000849  74.3549 285.7546 15.31723227 39578
STARLINK-34934          
1 65897U 25224R   26164.61421845  .00028787  00000+0  86028-3 0  9998
2 65897  53.1594 284.1617 0001396  86.6789 273.4373 15.34384673 39539
STARLINK-34936          
1 65898U 25224S   26164.62053045  .00021073  00000+0  63322-3 0  9996
2 65898  53.1604 284.2053 0001581  92.1642 267.9542 15.34392516 39589
STARLINK-35272          
1 65899U 25224T   26164.60370189  .00023994  00000+0  71902-3 0  9993
2 65899  53.1600 284.0972 0001224  57.2535 302.8586 15.34399277 39578
STARLINK-35264          
1 65900U 25224U   26164.59948726  .00028681  00000+0  85613-3 0  9994
2 65900  53.1607 284.0692 0001132  85.3718 274.7414 15.34422985 39570
STARLINK-35249          
1 65901U 25224V   26164.58053958  .00027472  00000+0  93604-3 0  9994
2 65901  53.1599 286.0776 0001939 162.9616 197.1450 15.30206678 39539
STARLINK-35278          
1 65902U 25224W   26164.65641103  .00038367  00000+0  13009-2 0  9993
2 65902  53.1613 285.8442 0001269  75.0897 285.0245 15.30198409 39569
STARLINK-35210          
1 65903U 25224X   26164.60059368  .00027554  00000+0  93904-3 0  9994
2 65903  53.1617 286.2055 0001210  84.7340 275.3799 15.30197625 39537
STARLINK-35348          
1 65904U 25224Y   26164.60791537  .00019337  00000+0  58258-3 0  9999
2 65904  53.1597 284.1237 0001225  91.9731 268.1412 15.34366290 39536
STARLINK-35380          
1 65905U 25224Z   26164.63636127  .00022796  00000+0  77939-3 0  9996
2 65905  53.1594 285.7111 0001372  68.5498 291.5649 15.30201781 39514
STARLINK-35385          
1 65906U 25224AA  26164.61842781  .00031371  00000+0  93613-3 0  9996
2 65906  53.1590 284.1890 0001110  89.2492 270.8638 15.34386652 39560
STARLINK-35347          
1 65907U 25224AB  26164.61211383  .00032058  00000+0  95591-3 0  9995
2 65907  53.1597 284.1476 0001177  86.4716 273.6421 15.34399529 39567
STARLINK-35329          
1 65908U 25224AC  26164.62474047  .00036938  00000+0  10991-2 0  9996
2 65908  53.1590 284.2283 0001317  93.7904 266.3249 15.34396988 39578
STARLINK-35387          
1 65909U 25224AD  26164.66168781  .00027938  00000+0  95202-3 0  9995
2 65909  53.1608 285.8740 0001171  86.7556 273.3578 15.30193688 39512
STARLINK-35523          
1 65910U 25225A   26164.45876121  .00026229  00000+0  78455-3 0  9992
2 65910  53.1597  80.6450 0001056  92.4471 267.6652 15.34406539 39078
STARLINK-35160          
1 65911U 25225B   26164.05742244  .00022527  00000+0  67555-3 0  9993
2 65911  53.1592  82.4079 0001122  88.6632 271.4499 15.34413445 39011
STARLINK-35508          
1 65912U 25225C   26164.04900779  .00021179  00000+0  63589-3 0  9997
2 65912  53.1602  82.3565 0001180  83.6343 276.4794 15.34413928 39010
STARLINK-35472          
1 65913U 25225D   26164.83335647  .00008832  00000+0  27240-3 0  9996
2 65913  53.1603  79.0289 0001350 110.0797  90.6038 15.34380165  5864
STARLINK-35524          
1 65914U 25225E   26164.05418760  .00020627  00000+0  70621-3 0  9996
2 65914  53.1584  82.3765 0001102  87.6145 272.4982 15.30218242 39014
STARLINK-35539          
1 65915U 25225F   26164.47879427  .00019170  00000+0  65740-3 0  9991
2 65915  53.1593  80.7833 0001288  74.3247 285.7896 15.30214356 39073
STARLINK-35521          
1 65916U 25225G   26164.48301780  .00012374  00000+0  42905-3 0  9992
2 65916  53.1593  80.7906 0001367 100.4866 259.6289 15.30213031 39076
STARLINK-35478          
1 65917U 25225H   26164.83335647  .00025280  00000+0  77748-3 0  9994
2 65917  53.1600  79.0912 0001357  96.4307  71.1910 15.33545559  5816
